{
    "links": {
        "self": "http://www.neowsapp.com/rest/v1/neo/3802101?api_key=iIulBulltgU6a56xZRHN4H3l9WmuAYTsLGpBGhQ2"
    },
    "id": "3802101",
    "neo_reference_id": "3802101",
    "name": "(2018 FH5)",
    "designation": "2018 FH5",
    "nasa_jpl_url": "http://ssd.jpl.nasa.gov/sbdb.cgi?sstr=3802101",
    "absolute_magnitude_h": 20.3,
    "estimated_diameter": {
        "kilometers": {
            "estimated_diameter_min": 0.2315021222,
            "estimated_diameter_max": 0.5176544822
        },
        "meters": {
            "estimated_diameter_min": 231.5021222103,
            "estimated_diameter_max": 517.6544821978
        },
        "miles": {
            "estimated_diameter_min": 0.1438487052,
            "estimated_diameter_max": 0.3216554833
        },
        "feet": {
            "estimated_diameter_min": 759.5214226325,
            "estimated_diameter_max": 1698.3415313737
        }
    },
    "is_potentially_hazardous_asteroid": false,
    "close_approach_data": [
        {
            "close_approach_date": "2011-06-17",
            "close_approach_date_full": "2011-Jun-17 08:40",
            "epoch_date_close_approach": 1308300000000,
            "relative_velocity": {
                "kilometers_per_second": "8.1862197766",
                "kilometers_per_hour": "29470.3911955995",
                "miles_per_hour": "18311.7550181768"
            },
            "miss_distance": {
                "astronomical": "1.8688018713",
                "lunar": "726.9639279357",
                "kilometers": "279568779.398494131",
                "miles": "173715984.2009997678"
            },
            "orbiting_body": "Juptr"
        },
        {
            "close_approach_date": "2018-04-07",
            "close_approach_date_full": "2018-Apr-07 10:11",
            "epoch_date_close_approach": 1523095860000,
            "relative_velocity": {
                "kilometers_per_second": "16.5857612693",
                "kilometers_per_hour": "59708.7405693569",
                "miles_per_hour": "37100.6893832207"
            },
            "miss_distance": {
                "astronomical": "0.4360124822",
                "lunar": "169.6088555758",
                "kilometers": "65226538.630532914",
                "miles": "40529891.7089616532"
            },
            "orbiting_body": "Earth"
        }
    ],
    "orbital_data": {
        "orbit_id": "7",
        "orbit_determination_date": "2018-06-09 06:24:30",
        "first_observation_date": "2018-03-23",
        "last_observation_date": "2018-06-08",
        "data_arc_in_days": 77,
        "observations_used": 38,
        "orbit_uncertainty": "6",
        "minimum_orbit_intersection": ".436685",
        "jupiter_tisserand_invariant": "3.083",
        "epoch_osculation": "2459000.5",
        "eccentricity": ".4930581751277479",
        "semi_major_axis": "2.557211070661852",
        "inclination": "30.7196712744356",
        "ascending_node_longitude": "359.2984026523337",
        "orbital_period": "1493.648099897074",
        "perihelion_distance": "1.296357246744845",
        "perihelion_argument": "236.4365287744652",
        "aphelion_distance": "3.818064894578859",
        "perihelion_time": "2458260.675672443951",
        "mean_anomaly": "178.3129225274218",
        "mean_motion": ".2410206259592251",
        "equinox": "J2000",
        "orbit_class": {
            "orbit_class_type": "AMO",
            "orbit_class_description": "Near-Earth asteroid orbits similar to that of 1221 Amor",
            "orbit_class_range": "1.017 AU < q (perihelion) < 1.3 AU"
        }
    },
    "is_sentry_object": false
}